NORAD_CAT_ID,OBJECT_NAME,OBJECT_TYPE,EPOCH,MEAN_MOTION,ECCENTRICITY,INCLINATION,RA_OF_ASC_NODE,ARG_OF_PERICENTER,MEAN_ANOMALY,BSTAR,MEAN_MOTION_DOT,MEAN_MOTION_DDOT,TLE_LINE0,TLE_LINE1,TLE_LINE2,SEMIMAJOR_AXIS,PERIOD,APOGEE,PERIGEE,DECAYED
52642.0,STARLINK-3971,PAYLOAD,2023-09-09 09:56:17,15.08845768,0.0001492,53.22,34.4824,104.386,255.7298,-5.4016e-05,-1.148e-05,0.0,0 STARLINK-3971,1 52642U 22052AW  23252.41409562 -.00001148  00000-0 -54016-4 0  9991,2 52642  53.2200  34.4824 0001492 104.3860 255.7298 15.08845768 73781,6917.863,95.437,540.76,538.696,0.0
52642.0,STARLINK-3971,PAYLOAD,2023-09-09 13:07:03,15.08853291,0.0001498,53.2206,33.888,108.068,252.0475,-4.5751e-05,-1.016e-05,0.0,0 STARLINK-3971,1 52642U 22052AW  23252.54657382 -.00001016  00000-0 -45751-4 0  9990,2 52642  53.2206  33.8880 0001498 108.0680 252.0475 15.08853291 73427,6917.84,95.437,540.741,538.668,0.0
52642.0,STARLINK-3971,PAYLOAD,2023-09-10 09:47:05,15.08837789,0.0001468,53.219,30.0235,90.1804,269.9356,3.233e-05,2.27e-06,0.0,0 STARLINK-3971,1 52642U 22052AW  23253.40769861  .00000227  00000-0  32330-4 0  9992,2 52642  53.2190  30.0235 0001468  90.1804 269.9356 15.08837789 73933,6917.887,95.438,540.768,538.737,0.0
52642.0,STARLINK-3971,PAYLOAD,2023-09-10 12:57:51,15.08840369,0.0001412,53.2199,29.4298,90.1919,269.9235,9.1332e-05,1.166e-05,0.0,0 STARLINK-3971,1 52642U 22052AW  23253.54017822  .00001166  00000-0  91332-4 0  9990,2 52642  53.2199  29.4298 0001412  90.1919 269.9235 15.08840369 73573,6917.879,95.438,540.721,538.767,0.0
52642.0,STARLINK-3971,PAYLOAD,2023-09-10 20:54:46,15.08850193,0.0001403,53.2207,27.9418,88.5141,271.6012,0.00011402,1.528e-05,0.0,0 STARLINK-3971,1 52642U 22052AW  23253.87137065  .00001528  00000-0  11402-3 0  9999,2 52642  53.2207  27.9418 0001403  88.5141 271.6012 15.08850193 74006,6917.849,95.437,540.685,538.744,0.0
52642.0,STARLINK-3971,PAYLOAD,2023-09-11 14:24:02,15.08835251,0.0001444,53.2192,24.6702,99.421,260.6945,-6.1251e-06,-3.85e-06,0.0,0 STARLINK-3971,1 52642U 22052AW  23254.60002438 -.00000385  00000-0 -61251-5 0  9997,2 52642  53.2192  24.6702 0001444  99.4210 260.6945 15.08835251 73732,6917.895,95.438,540.759,538.761,0.0
52642.0,STARLINK-3971,PAYLOAD,2023-09-11 17:34:48,15.08840414,0.0001326,53.2194,24.0772,92.1287,267.9857,4.7709e-05,4.71e-06,0.0,0 STARLINK-3971,1 52642U 22052AW  23254.73250042  .00000471  00000-0  47709-4 0  9992,2 52642  53.2194  24.0772 0001326  92.1287 267.9857 15.08840414 74132,6917.879,95.438,540.661,538.827,0.0
52642.0,STARLINK-3971,PAYLOAD,2023-09-12 01:31:44,15.08825527,0.0001348,53.2195,22.5893,85.5156,274.599,-7.3166e-05,-1.452e-05,0.0,0 STARLINK-3971,1 52642U 22052AW  23255.06371451 -.00001452  00000-0 -73166-4 0  9995,2 52642  53.2195  22.5893 0001348  85.5156 274.5990 15.08825527 74180,6917.925,95.438,540.722,538.857,0.0
52642.0,STARLINK-3971,PAYLOAD,2023-09-12 12:39:27,15.08820149,0.0001274,53.2208,20.5108,95.7025,264.4112,-5.1288e-05,-1.104e-05,0.0,0 STARLINK-3971,1 52642U 22052AW  23255.52740316 -.00001104  00000-0 -51288-4 0  9991,2 52642  53.2208  20.5108 0001274  95.7025 264.4112 15.08820149 73872,6917.941,95.439,540.687,538.925,0.0
52642.0,STARLINK-3971,PAYLOAD,2023-09-12 15:50:13,15.08825505,0.0001421,53.2204,19.9148,88.6165,271.499,-5.8256e-05,-1.215e-05,0.0,0 STARLINK-3971,1 52642U 22052AW  23255.65988177 -.00001215  00000-0 -58256-4 0  9999,2 52642  53.2204  19.9148 0001421  88.6165 271.4990 15.08825505 73899,6917.925,95.438,540.773,538.807,0.0
52642.0,STARLINK-3971,PAYLOAD,2023-09-13 01:22:31,15.0884572,0.0001255,53.22,18.1288,86.127,273.9866,5.6271e-05,6.08e-06,0.0,0 STARLINK-3971,1 52642U 22052AW  23256.05730512  .00000608  00000-0  56271-4 0  9990,2 52642  53.2200  18.1288 0001255  86.1270 273.9866 15.08845720 74336,6917.863,95.437,540.596,538.86,0.0
52642.0,STARLINK-3971,PAYLOAD,2023-09-13 12:30:11,15.08864904,0.0001298,53.2198,16.0489,88.418,271.6961,0.00027451,4.087e-05,0.0,0 STARLINK-3971,1 52642U 22052AW  23256.52096699  .00004087  00000-0  27451-3 0  9995,2 52642  53.2198  16.0489 0001298  88.4180 271.6961 15.08864904 74026,6917.804,95.436,540.567,538.771,0.0
52642.0,STARLINK-3971,PAYLOAD,2023-09-13 15:40:57,15.08874483,0.0001083,53.2186,15.4531,89.2328,270.8788,0.0005868,9.072e-05,0.0,0 STARLINK-3971,1 52642U 22052AW  23256.65344875  .00009072  00000-0  58680-3 0  9998,2 52642  53.2186  15.4531 0001083  89.2328 270.8788 15.08874483 74424,6917.775,95.435,540.389,538.891,0.0
52642.0,STARLINK-3971,PAYLOAD,2023-09-14 01:13:17,15.08847259,0.0001232,53.2197,13.6696,93.1025,267.0109,0.00020557,2.986e-05,0.0,0 STARLINK-3971,1 52642U 22052AW  23257.05090073  .00002986  00000-0  20557-3 0  9990,2 52642  53.2197  13.6696 0001232  93.1025 267.0109 15.08847259 74484,6917.858,95.437,540.575,538.871,0.0
52642.0,STARLINK-3971,PAYLOAD,2023-09-14 07:34:51,15.08817878,0.0001418,53.2204,12.4812,101.083,259.0322,-9.5657e-05,-1.809e-05,0.0,0 STARLINK-3971,1 52642U 22052AW  23257.31587864 -.00001809  00000-0 -95657-4 0  9997,2 52642  53.2204  12.4812 0001418 101.0830 259.0322 15.08817878 74526,6917.948,95.439,540.794,538.832,0.0
52642.0,STARLINK-3971,PAYLOAD,2023-09-14 12:21:00,15.08824622,0.0001399,53.22,11.5891,91.7851,268.3302,-0.00022761,-3.907e-05,0.0,0 STARLINK-3971,1 52642U 22052AW  23257.51459370 -.00003907  00000-0 -22761-3 0  9995,2 52642  53.2200  11.5891 0001399  91.7851 268.3302 15.08824622 74172,6917.927,95.439,540.76,538.825,0.0
52642.0,STARLINK-3971,PAYLOAD,2023-09-14 13:56:23,15.0882553,0.0001324,53.2191,11.2909,94.0201,266.0942,-0.00043947,-7.272e-05,0.0,0 STARLINK-3971,1 52642U 22052AW  23257.58083026 -.00007272  00000-0 -43947-3 0  9991,2 52642  53.2191  11.2909 0001324  94.0201 266.0942 15.08825530 74568,6917.925,95.438,540.706,538.874,0.0
52642.0,STARLINK-3971,PAYLOAD,2023-09-15 01:04:05,15.08836216,0.0001331,53.2197,9.2093,102.7333,257.3808,-1.2402e-05,-4.85e-06,0.0,0 STARLINK-3971,1 52642U 22052AW  23258.04450982 -.00000485  00000-0 -12402-4 0  9994,2 52642  53.2197   9.2093 0001331 102.7333 257.3808 15.08836216 74631,6917.892,95.438,540.678,538.836,0.0
52642.0,STARLINK-3971,PAYLOAD,2023-09-15 13:47:10,15.08861034,0.0001174,53.2189,6.8311,98.3077,261.8048,0.001578,0.0002493,0.0,0 STARLINK-3971,1 52642U 22052AW  23258.57443043  .00024930  00000-0  15780-2 0  9991,2 52642  53.2189   6.8311 0001174  98.3077 261.8048 15.08861034 74337,6917.816,95.436,540.493,538.869,0.0
52642.0,STARLINK-3971,PAYLOAD,2023-09-16 00:54:52,15.08857304,0.0001789,53.2192,4.7502,66.0427,294.0752,0.0010852,0.00017033,0.0,0 STARLINK-3971,1 52642U 22052AW  23259.03811103  .00017033  00000-0  10852-2 0  9990,2 52642  53.2192   4.7502 0001789  66.0427 294.0752 15.08857304 74787,6917.827,95.436,540.93,538.455,0.0
52642.0,STARLINK-3971,PAYLOAD,2023-09-16 10:27:11,15.08850598,0.0001679,53.2188,2.9636,108.6379,251.4795,0.00032038,4.816e-05,0.0,0 STARLINK-3971,1 52642U 22052AW  23259.43554888  .00004816  00000-0  32038-3 0  9994,2 52642  53.2188   2.9636 0001679 108.6379 251.4795 15.08850598 74846,6917.848,95.437,540.875,538.551,0.0
52642.0,STARLINK-3971,PAYLOAD,2023-09-16 13:37:58,15.08838775,0.0001307,53.2188,2.3717,89.4004,270.7138,0.0001039,1.366e-05,0.0,0 STARLINK-3971,1 52642U 22052AW  23259.56803281  .00001366  00000-0  10390-3 0  9996,2 52642  53.2188   2.3717 0001307  89.4004 270.7138 15.08838775 74487,6917.884,95.438,540.653,538.845,0.0
52642.0,STARLINK-3971,PAYLOAD,2023-09-17 13:28:44,15.08851754,0.0001298,53.2195,357.9105,103.5508,256.5629,0.0001043,1.373e-05,0.0,0 STARLINK-3971,1 52642U 22052AW  23260.56162551  .00001373  00000-0  10430-3 0  9999,2 52642  53.2195 357.9105 0001298 103.5508 256.5629 15.08851754 74637,6917.844,95.437,540.607,538.812,0.0
52642.0,STARLINK-3971,PAYLOAD,2023-09-18 10:08:45,15.08838554,0.0001643,53.2204,354.0465,103.8675,256.25,7.8138e-05,9.56e-06,0.0,0 STARLINK-3971,1 52642U 22052AW  23261.42275181  .00000956  00000-0  78138-4 0  9995,2 52642  53.2204 354.0465 0001643 103.8675 256.2500 15.08838554 75142,6917.885,95.438,540.886,538.613,0.0
52642.0,STARLINK-3971,PAYLOAD,2023-09-18 13:19:32,15.08839758,0.0001483,53.2198,353.4514,97.0262,263.0899,8.3898e-05,1.048e-05,0.0,0 STARLINK-3971,1 52642U 22052AW  23261.55523157  .00001048  00000-0  83898-4 0  9990,2 52642  53.2198 353.4514 0001483  97.0262 263.0899 15.08839758 74783,6917.881,95.438,540.772,538.72,0.0
52642.0,STARLINK-3971,PAYLOAD,2023-09-19 09:59:31,15.08856557,0.0001504,53.2199,349.5858,104.219,255.8969,0.00028315,4.223e-05,0.0,0 STARLINK-3971,1 52642U 22052AW  23262.41634147  .00004223  00000-0  28315-3 0  9998,2 52642  53.2199 349.5858 0001504 104.2190 255.8969 15.08856557 75296,6917.83,95.437,540.735,538.654,0.0
52642.0,STARLINK-3971,PAYLOAD,2023-09-20 09:50:19,15.08816117,0.0001415,53.2193,345.1255,83.8132,276.3021,-0.00066191,-0.000108,0.0,0 STARLINK-3971,1 52642U 22052AW  23263.40995146 -.00010800  00000-0 -66191-3 0  9991,2 52642  53.2193 345.1255 0001415  83.8132 276.3021 15.08816117 75444,6917.953,95.439,540.797,538.84,0.0
52642.0,STARLINK-3971,PAYLOAD,2023-09-20 13:01:06,15.08812313,0.0001461,53.2181,344.5294,66.4263,293.6883,-0.000366,-6.104e-05,0.0,0 STARLINK-3971,1 52642U 22052AW  23263.54243442 -.00006104  00000-0 -36600-3 0  9995,2 52642  53.2181 344.5294 0001461  66.4263 293.6883 15.08812313 75082,6917.965,95.439,540.841,538.819,0.0
52642.0,STARLINK-3971,PAYLOAD,2023-09-21 09:41:07,15.08846054,0.0001424,53.2168,340.6635,62.9793,297.1344,0.0014406,0.00022717,0.0,0 STARLINK-3971,1 52642U 22052AW  23264.40356315  .00022717  00000-0  14406-2 0  9990,2 52642  53.2168 340.6635 0001424  62.9793 297.1344 15.08846054 75597,6917.862,95.437,540.712,538.742,0.0
52642.0,STARLINK-3971,PAYLOAD,2023-09-21 12:51:54,15.08854186,0.0001606,53.217,340.0696,55.1024,305.0119,0.0014835,0.0002341,0.0,0 STARLINK-3971,1 52642U 22052AW  23264.53604250  .00023410  00000-0  14835-2 0  9995,2 52642  53.2170 340.0696 0001606  55.1024 305.0119 15.08854186 75239,6917.837,95.437,540.813,538.591,0.0
